STARLINK-1764
1 16343C 20062V   21326.08803345 -.00015876  00000-0 -10638-2 0  3268
2 16343  53.0529 198.3516 0001901  71.8799  38.1198 15.06411871    16
